start=new Date('2022-01-19T00:00:00.000Z').valueOf();
sats=[{"COUNTRY_CODE":"US","MEAN_ELEMENT_THEORY":"SGP4","SITE":"AFETR","GP_ID":"194152763","SEMIMAJOR_AXIS":"6925.348","ELEMENT_SET_NO":"999","OBJECT_ID":"2020-006AY","TLE_LINE2":"2 45090  53.0539 189.1176 0002624  79.0348 281.0936 15.06400297109309","PERIAPSIS":"545.395","BSTAR":"0.00001848900000","ECCENTRICITY":"0.00026240","LAUNCH_DATE":"2020-01-29","RA_OF_ASC_NODE":"189.1176","FILE":"3276875","CLASSIFICATION_TYPE":"U","NORAD_CAT_ID":"45090","MEAN_MOTION_DOT":"-0.00000007","INCLINATION":"53.0539","APOAPSIS":"549.030","PERIOD":"95.592","ARG_OF_PERICENTER":"79.0348","EPOCH":"2022-01-18T19:59:23.674560","REV_AT_EPOCH":"10930","DECAY_DATE":null,"MEAN_ANOMALY":"281.0936","OBJECT_TYPE":"PAYLOAD","OBJECT_NAME":"STARLINK-1176","EPHEMERIS_TYPE":"0","MEAN_MOTION":"15.06400297","REF_FRAME":"TEME","MEAN_MOTION_DDOT":"0.0000000000000","CENTER_NAME":"EARTH","TIME_SYSTEM":"UTC","RCS_SIZE":"LARGE","TLE_LINE1":"1 45090U 20006AY  22018.83291290 -.00000007  00000-0  18489-4 0  9995"},{"FILE":"3276875","NORAD_CAT_ID":"45092","CLASSIFICATION_TYPE":"U","RA_OF_ASC_NODE":"189.2404","LAUNCH_DATE":"2020-01-29","ECCENTRICITY":"0.00021060","OBJECT_ID":"2020-006BA","ELEMENT_SET_NO":"999","BSTAR":"-0.00000966930000","PERIAPSIS":"545.755","TLE_LINE2":"2 45092  53.0541 189.2404 0002106  82.3384 277.7844 15.06399957109299","GP_ID":"194153508","SITE":"AFETR","MEAN_ELEMENT_THEORY":"SGP4","COUNTRY_CODE":"US","SEMIMAJOR_AXIS":"6925.349","TLE_LINE1":"1 45092U 20006BA  22018.80710436 -.00000426  00000-0 -96693-5 0  9992","RCS_SIZE":"LARGE","MEAN_MOTION_DDOT":"0.0000000000000","CENTER_NAME":"EARTH","TIME_SYSTEM":"UTC","REF_FRAME":"TEME","DECAY_DATE":null,"MEAN_ANOMALY":"277.7844","EPHEMERIS_TYPE":"0","MEAN_MOTION":"15.06399957","OBJECT_NAME":"STARLINK-1137","OBJECT_TYPE":"PAYLOAD","ARG_OF_PERICENTER":"82.3384","PERIOD":"95.592","APOAPSIS":"548.672","INCLINATION":"53.0541","MEAN_MOTION_DOT":"-0.00000426","REV_AT_EPOCH":"10929","EPOCH":"2022-01-18T19:22:13.816704"},{"OBJECT_TYPE":"PAYLOAD","EPHEMERIS_TYPE":"0","MEAN_MOTION":"15.06395026","OBJECT_NAME":"STARLINK-1142","MEAN_ANOMALY":"276.7735","DECAY_DATE":null,"EPOCH":"2022-01-18T20:52:27.984576","REV_AT_EPOCH":"10930","INCLINATION":"53.0541","MEAN_MOTION_DOT":"0.00000273","ARG_OF_PERICENTER":"83.3502","PERIOD":"95.592","APOAPSIS":"548.739","TLE_LINE1":"1 45093U 20006BB  22018.86976834  .00000273  00000-0  37273-4 0  9991","MEAN_MOTION_DDOT":"0.0000000000000","TIME_SYSTEM":"UTC","CENTER_NAME":"EARTH","REF_FRAME":"TEME","RCS_SIZE":"LARGE","PERIAPSIS":"545.718","TLE_LINE2":"2 45093  53.0541 188.9545 0002181  83.3502 276.7735 15.06395026109301","BSTAR":"0.00003727300000","ELEMENT_SET_NO":"999","OBJECT_ID":"2020-006BB","SEMIMAJOR_AXIS":"6925.364","COUNTRY_CODE":"US","SITE":"AFETR","GP_ID":"194153242","MEAN_ELEMENT_THEORY":"SGP4","CLASSIFICATION_TYPE":"U","NORAD_CAT_ID":"45093","FILE":"3276875","LAUNCH_DATE":"2020-01-29","ECCENTRICITY":"0.00021810","RA_OF_ASC_NODE":"188.9545"},{"EPHEMERIS_TYPE":"0","MEAN_MOTION":"15.06406507","OBJECT_NAME":"STARLINK-1146","OBJECT_TYPE":"PAYLOAD","MEAN_ANOMALY":"278.9971","DECAY_DATE":null,"REV_AT_EPOCH":"10931","EPOCH":"2022-01-18T21:13:40.991808","PERIOD":"95.592","ARG_OF_PERICENTER":"81.1264","APOAPSIS":"548.698","INCLINATION":"53.0557","MEAN_MOTION_DOT":"-0.00000381","TLE_LINE1":"1 45094U 20006BC  22018.88450222 -.00000381  00000-0 -66795-5 0  9996","RCS_SIZE":"LARGE","MEAN_MOTION_DDOT":"0.0000000000000","TIME_SYSTEM":"UTC","CENTER_NAME":"EARTH","REF_FRAME":"TEME","BSTAR":"-0.00000667950000","PERIAPSIS":"545.689","TLE_LINE2":"2 45094  53.0557 188.8837 0002172  81.1264 278.9971 15.06406507109317","OBJECT_ID":"2020-006BC","ELEMENT_SET_NO":"999","SEMIMAJOR_AXIS":"6925.329","SITE":"AFETR","GP_ID":"194152012","MEAN_ELEMENT_THEORY":"SGP4","COUNTRY_CODE":"US","NORAD_CAT_ID":"45094","CLASSIFICATION_TYPE":"U","FILE":"3276875","RA_OF_ASC_NODE":"188.8837","LAUNCH_DATE":"2020-01-29","ECCENTRICITY":"0.00021720"},{"INCLINATION":"53.0548","MEAN_MOTION_DOT":"-0.00000596","PERIOD":"95.593","ARG_OF_PERICENTER":"80.0076","APOAPSIS":"548.648","EPOCH":"2022-01-18T18:07:55.304544","REV_AT_EPOCH":"10929","DECAY_DATE":null,"MEAN_ANOMALY":"280.1143","OBJECT_TYPE":"PAYLOAD","MEAN_MOTION":"15.06392363","EPHEMERIS_TYPE":"0","OBJECT_NAME":"STARLINK-1147","MEAN_MOTION_DDOT":"0.0000000000000","TIME_SYSTEM":"UTC","CENTER_NAME":"EARTH","REF_FRAME":"TEME","RCS_SIZE":"LARGE","TLE_LINE1":"1 45095U 20006BD  22018.75550121 -.00000596  00000-0 -21102-4 0  9992","COUNTRY_CODE":"US","SITE":"AFETR","GP_ID":"194152263","MEAN_ELEMENT_THEORY":"SGP4","SEMIMAJOR_AXIS":"6925.372","ELEMENT_SET_NO":"999","OBJECT_ID":"2020-006BD","PERIAPSIS":"545.826","TLE_LINE2":"2 45095  53.0548 189.4759 0002038  80.0076 280.1143 15.06392363109295","BSTAR":"-0.00002110200000","LAUNCH_DATE":"2020-01-29","ECCENTRICITY":"0.00020380","RA_OF_ASC_NODE":"189.4759","FILE":"3276875","CLASSIFICATION_TYPE":"U","NORAD_CAT_ID":"45095"},{"MEAN_MOTION_DOT":"0.00001746","INCLINATION":"53.0545","APOAPSIS":"548.757","ARG_OF_PERICENTER":"83.9837","PERIOD":"95.592","EPOCH":"2022-01-18T17:57:17.186976","REV_AT_EPOCH":"10928","DECAY_DATE":null,"MEAN_ANOMALY":"276.1408","OBJECT_TYPE":"PAYLOAD","OBJECT_NAME":"STARLINK-1152","EPHEMERIS_TYPE":"0","MEAN_MOTION":"15.06403225","REF_FRAME":"TEME","CENTER_NAME":"EARTH","MEAN_MOTION_DDOT":"0.0000000000000","TIME_SYSTEM":"UTC","RCS_SIZE":"LARGE","TLE_LINE1":"1 45096U 20006BE  22018.74811559  .00001746  00000-0  13612-3 0  9999","COUNTRY_CODE":"US","MEAN_ELEMENT_THEORY":"SGP4","SITE":"AFETR","GP_ID":"194153008","SEMIMAJOR_AXIS":"6925.339","ELEMENT_SET_NO":"999","OBJECT_ID":"2020-006BE","TLE_LINE2":"2 45096  53.0545 189.5123 0002243  83.9837 276.1408 15.06403225109282","PERIAPSIS":"545.650","BSTAR":"0.00013612000000","ECCENTRICITY":"0.00022430","LAUNCH_DATE":"2020-01-29","RA_OF_ASC_NODE":"189.5123","FILE":"3276875","CLASSIFICATION_TYPE":"U","NORAD_CAT_ID":"45096"},{"APOAPSIS":"548.693","PERIOD":"95.592","ARG_OF_PERICENTER":"82.6839","MEAN_MOTION_DOT":"-0.00000929","INCLINATION":"53.0537","REV_AT_EPOCH":"10930","EPOCH":"2022-01-18T20:41:51.066240","MEAN_ANOMALY":"277.4392","DECAY_DATE":null,"OBJECT_NAME":"STARLINK-1184","EPHEMERIS_TYPE":"0","MEAN_MOTION":"15.06398397","OBJECT_TYPE":"PAYLOAD","RCS_SIZE":"LARGE","REF_FRAME":"TEME","CENTER_NAME":"EARTH","MEAN_MOTION_DDOT":"0.0000000000000","TIME_SYSTEM":"UTC","TLE_LINE1":"1 45098U 20006BG  22018.86239660 -.00000929  00000-0 -43428-4 0  9994","MEAN_ELEMENT_THEORY":"SGP4","SITE":"AFETR","GP_ID":"194153743","COUNTRY_CODE":"US","SEMIMAJOR_AXIS":"6925.353","OBJECT_ID":"2020-006BG","ELEMENT_SET_NO":"999","BSTAR":"-0.00004342800000","TLE_LINE2":"2 45098  53.0537 188.9964 0002129  82.6839 277.4392 15.06398397109304","PERIAPSIS":"545.744","RA_OF_ASC_NODE":"188.9964","ECCENTRICITY":"0.00021290","LAUNCH_DATE":"2020-01-29","FILE":"3276875","NORAD_CAT_ID":"45098","CLASSIFICATION_TYPE":"U"},{"SEMIMAJOR_AXIS":"6925.343","SITE":"AFETR","GP_ID":"194152513","MEAN_ELEMENT_THEORY":"SGP4","COUNTRY_CODE":"US","BSTAR":"-0.00003303200000","PERIAPSIS":"545.559","TLE_LINE2":"2 45099  53.0558 189.4298 0002382  76.6792 283.4463 15.06401675109294","OBJECT_ID":"2020-006BH","ELEMENT_SET_NO":"999","RA_OF_ASC_NODE":"189.4298","ECCENTRICITY":"0.00023820","LAUNCH_DATE":"2020-01-29","NORAD_CAT_ID":"45099","CLASSIFICATION_TYPE":"U","FILE":"3276875","REV_AT_EPOCH":"10929","EPOCH":"2022-01-18T18:18:31.648320","ARG_OF_PERICENTER":"76.6792","PERIOD":"95.592","APOAPSIS":"548.858","INCLINATION":"53.0558","MEAN_MOTION_DOT":"-0.00000774","EPHEMERIS_TYPE":"0","MEAN_MOTION":"15.06401675","OBJECT_NAME":"STARLINK-1186","OBJECT_TYPE":"PAYLOAD","DECAY_DATE":null,"MEAN_ANOMALY":"283.4463","RCS_SIZE":"LARGE","CENTER_NAME":"EARTH","MEAN_MOTION_DDOT":"0.0000000000000","TIME_SYSTEM":"UTC","REF_FRAME":"TEME","TLE_LINE1":"1 45099U 20006BH  22018.76286630 -.00000774  00000-0 -33032-4 0  9991"},{"MEAN_MOTION":"15.06401086","EPHEMERIS_TYPE":"0","OBJECT_NAME":"STARLINK-1193","OBJECT_TYPE":"PAYLOAD","DECAY_DATE":null,"MEAN_ANOMALY":"277.8859","REV_AT_EPOCH":"10930","EPOCH":"2022-01-18T20:36:32.534496","ARG_OF_PERICENTER":"82.2391","PERIOD":"95.592","APOAPSIS":"548.802","INCLINATION":"53.0551","MEAN_MOTION_DOT":"-0.00000721","TLE_LINE1":"1 45100U 20006BJ  22018.85870989 -.00000721  00000-0 -29508-4 0  9995","RCS_SIZE":"LARGE","CENTER_NAME":"EARTH","MEAN_MOTION_DDOT":"0.0000000000000","TIME_SYSTEM":"UTC","REF_FRAME":"TEME","BSTAR":"-0.00002950800000","PERIAPSIS":"545.618","TLE_LINE2":"2 45100  53.0551 188.9888 0002299  82.2391 277.8859 15.06401086109308","OBJECT_ID":"2020-006BJ","ELEMENT_SET_NO":"999","SEMIMAJOR_AXIS":"6925.345","GP_ID":"194152764","SITE":"AFETR","MEAN_ELEMENT_THEORY":"SGP4","COUNTRY_CODE":"US","NORAD_CAT_ID":"45100","CLASSIFICATION_TYPE":"U","FILE":"3276875","RA_OF_ASC_NODE":"188.9888","ECCENTRICITY":"0.00022990","LAUNCH_DATE":"2020-01-29"},{"OBJECT_ID":"2020-006BK","ELEMENT_SET_NO":"999","BSTAR":"0.00012600000000","PERIAPSIS":"545.744","TLE_LINE2":"2 45101  53.0535 189.0080 0002119  84.0977 276.0254 15.06400825109308","GP_ID":"194153509","SITE":"AFETR","MEAN_ELEMENT_THEORY":"SGP4","COUNTRY_CODE":"US","SEMIMAJOR_AXIS":"6925.346","FILE":"3276875","NORAD_CAT_ID":"45101","CLASSIFICATION_TYPE":"U","RA_OF_ASC_NODE":"189.0080","ECCENTRICITY":"0.00021190","LAUNCH_DATE":"2020-01-29","DECAY_DATE":null,"MEAN_ANOMALY":"276.0254","EPHEMERIS_TYPE":"0","MEAN_MOTION":"15.06400825","OBJECT_NAME":"STARLINK-1194","OBJECT_TYPE":"PAYLOAD","ARG_OF_PERICENTER":"84.0977","PERIOD":"95.592","APOAPSIS":"548.679","INCLINATION":"53.0535","MEAN_MOTION_DOT":"0.00001596","REV_AT_EPOCH":"10930","EPOCH":"2022-01-18T20:31:13.045440","TLE_LINE1":"1 45101U 20006BK  22018.85501210  .00001596  00000-0  12600-3 0  9997","RCS_SIZE":"LARGE","TIME_SYSTEM":"UTC","MEAN_MOTION_DDOT":"0.0000000000000","CENTER_NAME":"EARTH","REF_FRAME":"TEME"}];
